POLYITAN-1              
1 40042U 14033AJ  26204.32331618  .00018684  00000+0  56162-3 0  9991
2 40042  98.0940 234.0351 0007064  39.5011 320.6744 15.34444208659131
TIGRISAT                
1 40043U 14033AK  26204.56361196  .00001322  00000+0  15732-3 0  9991
2 40043  97.7874 353.7532 0048014 316.4292  43.3134 14.85267687651023
AEROCUBE 6A             
1 40045U 14033AM  26204.02093090  .00006125  00000+0  51139-3 0  9996
2 40045  97.7275  10.6016 0036112 253.9554 105.7690 14.98410696651987
AEROCUBE 6B             
1 40046U 14033AN  26204.58889164  .00005779  00000+0  46416-3 0  9999
2 40046  97.7204  11.0242 0038266 240.4770 119.2635 14.99861367652211
CANX-4                  
1 40055U 14034C   26204.22314960  .00000730  00000+0  10082-3 0  9990
2 40055  98.3072  80.8513 0011389 253.9790 106.0167 14.81321101649863
CANX-5                  
1 40056U 14034D   26204.49135054  .00000732  00000+0  10106-3 0  9994
2 40056  98.3074  81.1750 0011405 253.2971 106.6989 14.81338876640716
UKUBE-1                 
1 40074U 14037F   26203.00273654  .00008356  00000+0  46405-3 0  9993
2 40074  98.4254 209.9476 0003134  76.9955 283.1624 15.14023415653824
BRITE-PL2 (HEWELIUSZ)   
1 40119U 14049B   26204.25641334  .00001818  00000+0  17277-3 0  9999
2 40119  97.9122 316.5421 0013589 355.9834   4.1275 14.94705750646830
AEROCUBE 5C             
1 40965U 15058B   26204.24339072  .00003771  00000+0  33074-3 0  9994
2 40965  64.7666 150.4059 0132941  49.3728 311.8856 14.91618098371031
AEROCUBE 7              
1 40966U 15058C   26204.13581659  .00005223  00000+0  41273-3 0  9997
2 40966  64.7620 132.1954 0122634  47.7154 313.4278 14.95972848371335
FOX-1A (AO-85)          
1 40967U 15058D   26204.30272102  .00003792  00000+0  33669-3 0  9996
2 40967  64.7741 166.7325 0133071  42.7370 318.3997 14.91129767118956
SINOD-D 1               
1 40968U 15058E   26204.24321225  .00005576  00000+0  43849-3 0  9994
2 40968  64.7744 145.9777 0121725  39.1153 321.8682 14.96150866122057
SNAP-3 ALICE            
1 40970U 15058G   26204.34947954  .00170298  00000+0  14013-2 0  9995
2 40970  64.7487 338.0642 0026810 343.6595  16.3688 15.69162068122546
LMRST-SAT               
1 40971U 15058H   26204.33440621  .00003374  00000+0  30327-3 0  9991
2 40971  64.7747 163.0413 0134575  44.7229 316.4640 14.90742519118948
SNAP-3 EDDIE            
1 40972U 15058J   26204.62780309  .00203622  00000+0  15518-2 0  9996
2 40972  64.7405 327.5252 0028065 346.0444  13.9928 15.70853462124732
PROPCUBE 3              
1 40973U 15058K   26204.21371279  .00004623  00000+0  37866-3 0  9995
2 40973  64.7681 139.9567 0126387  45.9491 315.1947 14.94468458120181
BISONSAT                
1 40974U 15058L   26204.29930863  .00013145  00000+0  61313-3 0  9997
2 40974  64.7589  56.8012 0082803  32.2910 328.3244 15.17090256121090
SNAP-3 JIMI             
1 40975U 15058M   26204.13177842  .00007258  00000+0  48884-3 0  9997
2 40975  64.7647 106.0113 0108385  41.2538 319.6705 15.02693681119622
PROPCUBE 1 (FLORA)      
1 40976U 15058N   26204.38974981  .00003064  00000+0  28810-3 0  9992
2 40976  64.7730 183.0206 0133112  46.9669 314.2500 14.89362825121654
SINOD-D 3               
1 40977U 15058P   26204.31810479  .00004894  00000+0  40717-3 0  9999
2 40977  64.7714 162.9740 0121679  44.0271 317.0454 14.94228208120154
RAVAN                   
1 41849U 16067B   26204.23898871  .00064563  00000+0  85193-3 0  9998
2 41849  97.9829  98.0692 0003415 182.5920 177.5317 15.58180668533309
CELTEE 1                
1 41850U 16067C   26204.35178373  .00004738  00000+0  22359-3 0  9994
2 41850  98.0633  73.3853 0002517  99.9194 260.2324 15.19998381531376
OPTICUBE 04             
1 41851U 16067D   26204.13447358  .00001954  00000+0  12510-3 0  9998
2 41851  98.0668  58.2908 0015524   1.6575 358.4701 15.09795677530597
AEROCUBE 8D             
1 41852U 16067E   26204.44932957  .00007246  00000+0  29485-3 0  9996
2 41852  98.0639  77.3820 0004000  35.6935 324.4568 15.24855276531599
AEROCUBE 8C             
1 41853U 16067F   26203.87781190  .00007654  00000+0  30896-3 0  9995
2 41853  98.0510  73.9494 0003716 309.3108  50.7798 15.25100953531504
CORVUS BC2              
1 42846U 17042X   26204.39660164  .00003073  00000+0  21181-3 0  9995
2 42846  97.4099   4.3505 0012616 354.6231   5.4859 15.06490552492510
CORVUS BC1              
1 42847U 17042Y   26204.38723426  .00003152  00000+0  21627-3 0  9999
2 42847  97.4135   5.1792 0010835 330.8606  29.2016 15.06656762492541
MAKERSAT 0              
1 43016U 17073D   26204.08832403  .00023835  00000+0  62103-3 0  9999
2 43016  97.4573  86.9049 0105725 144.3345 216.5022 15.33243210471960
SIRION PATHFINDER-2     
1 43759U 18099B   26204.11938092  .00003743  00000+0  20479-3 0  9993
2 43759  97.4236 252.3249 0009296 164.7022 195.4493 15.14823429418069
CORVUS BC4              
1 43767U 18099K   26204.57188597  .00003788  00000+0  21961-3 0  9995
2 43767  97.4051 246.4889 0006971 225.6264 134.4396 15.12750007417905
